CELESTIS-02             
1 25160U 98007D   22359.30981203  .00000015  00000+0  64396-4 0  9992
2 25160 107.9866 291.0943 0061280 144.9868 337.8946 14.21674632290207
CELESTIS-03             
1 26034U 99070C   22358.87589406  .00027708  00000+0  10476-2 0  9990
2 26034  98.2999  24.7274 0007768 188.3553 171.7555 15.26918784250043
